NORAD_CAT_ID,OBJECT_NAME,OBJECT_TYPE,EPOCH,MEAN_MOTION,ECCENTRICITY,INCLINATION,RA_OF_ASC_NODE,ARG_OF_PERICENTER,MEAN_ANOMALY,BSTAR,MEAN_MOTION_DOT,MEAN_MOTION_DDOT,TLE_LINE0,TLE_LINE1,TLE_LINE2,SEMIMAJOR_AXIS,PERIOD,APOGEE,PERIGEE,DECAYED
51977.0,STARLINK-3660,PAYLOAD,2023-04-26 02:29:48,15.08793658,0.0001393,53.2174,46.4121,96.8581,263.257,-0.00062523,-0.00010212,0.0,0 STARLINK-3660,1 51977U 22025X   23116.10402997 -.00010212  00000-0 -62523-3 0  9994,2 51977  53.2174  46.4121 0001393  96.8581 263.2570 15.08793658 64124,6918.022,95.44,540.851,538.923,0.0
51977.0,STARLINK-3660,PAYLOAD,2023-04-26 05:40:34,15.0879712,0.0001294,53.2169,45.8203,112.6188,247.4942,-0.00069503,-0.00011319,0.0,0 STARLINK-3660,1 51977U 22025X   23116.23651590 -.00011319  00000-0 -69503-3 0  9997,2 51977  53.2169  45.8203 0001294 112.6188 247.4942 15.08797120 63058,6918.011,95.44,540.772,538.981,0.0
51977.0,STARLINK-3660,PAYLOAD,2023-04-27 03:55:59,15.08809418,0.0001148,53.2166,41.6558,112.0261,248.0853,0.0002445,3.602e-05,0.0,0 STARLINK-3660,1 51977U 22025X   23117.16388602  .00003602  00000-0  24450-3 0  9997,2 51977  53.2166  41.6558 0001148 112.0261 248.0853 15.08809418 64284,6917.974,95.439,540.633,539.045,0.0
51977.0,STARLINK-3660,PAYLOAD,2023-04-27 05:31:22,15.08815682,0.0001197,53.2155,41.3574,101.969,258.1437,7.5945e-05,9.2e-06,0.0,0 STARLINK-3660,1 51977U 22025X   23117.23012501  .00000920  00000-0  75945-4 0  9993,2 51977  53.2155  41.3574 0001197 101.9690 258.1437 15.08815682 63205,6917.955,95.439,540.648,538.992,0.0
51977.0,STARLINK-3660,PAYLOAD,2023-04-27 18:14:28,15.08842024,8.56e-05,53.2179,38.9802,108.1684,251.9402,0.00078798,0.00012276,0.0,0 STARLINK-3660,1 51977U 22025X   23117.76004855  .00012276  00000-0  78798-3 0  9999,2 51977  53.2179  38.9802 0000856 108.1684 251.9402 15.08842024 64372,6917.874,95.437,540.331,539.147,0.0
51977.0,STARLINK-3660,PAYLOAD,2023-04-28 03:46:45,15.0888781,9.38e-05,53.2146,37.1958,119.3801,240.7285,0.0013703,0.00021616,0.0,0 STARLINK-3660,1 51977U 22025X   23118.15747271  .00021616  00000-0  13703-2 0  9991,2 51977  53.2146  37.1958 0000938 119.3801 240.7285 15.08887810 64439,6917.734,95.435,540.248,538.95,0.0
51977.0,STARLINK-3660,PAYLOAD,2023-04-28 11:43:41,15.08871217,0.0001366,53.2162,35.709,86.1384,273.9764,0.00096674,0.00015144,0.0,0 STARLINK-3660,1 51977U 22025X   23118.48867311  .00015144  00000-0  96674-3 0  9993,2 51977  53.2162  35.7090 0001366  86.1384 273.9764 15.08871217 64480,6917.785,95.436,540.595,538.705,0.0
51977.0,STARLINK-3660,PAYLOAD,2023-04-29 03:37:32,15.08856574,0.0001151,53.2163,32.7348,96.6453,263.467,0.00053579,8.253e-05,0.0,0 STARLINK-3660,1 51977U 22025X   23119.15107110  .00008253  00000-0  53579-3 0  9992,2 51977  53.2163  32.7348 0001151  96.6453 263.4670 15.08856574 64589,6917.83,95.437,540.491,538.898,0.0
51977.0,STARLINK-3660,PAYLOAD,2023-04-30 03:28:20,15.08849635,0.0001262,53.2173,28.2737,89.1101,271.0036,0.00078284,0.00012196,0.0,0 STARLINK-3660,1 51977U 22025X   23120.14467654  .00012196  00000-0  78284-3 0  9996,2 51977  53.2173  28.2737 0001262  89.1101 271.0036 15.08849635 64730,6917.851,95.437,540.589,538.843,0.0
51977.0,STARLINK-3660,PAYLOAD,2023-04-30 20:57:34,15.08840132,0.000147,53.2179,24.9999,111.3598,248.7551,0.00049281,7.564e-05,0.0,0 STARLINK-3660,1 51977U 22025X   23120.87331845  .00007564  00000-0  49281-3 0  9996,2 51977  53.2179  24.9999 0001470 111.3598 248.7551 15.08840132 64846,6917.88,95.438,540.762,538.728,0.0
51977.0,STARLINK-3660,PAYLOAD,2023-05-01 03:19:07,15.0884056,0.0001401,53.2182,23.8099,104.2766,255.8382,0.00018496,2.657e-05,0.0,0 STARLINK-3660,1 51977U 22025X   23121.13827892  .00002657  00000-0  18496-3 0  9990,2 51977  53.2182  23.8099 0001401 104.2766 255.8382 15.08840560 63790,6917.879,95.438,540.713,538.774,0.0
51977.0,STARLINK-3660,PAYLOAD,2023-05-01 22:23:44,15.08846439,0.0001391,53.2173,20.2415,111.4448,248.6693,0.0002056,2.986e-05,0.0,0 STARLINK-3660,1 51977U 22025X   23121.93315606  .00002986  00000-0  20560-3 0  9993,2 51977  53.2173  20.2415 0001391 111.4448 248.6693 15.08846439 65000,6917.861,95.437,540.688,538.763,0.0
51977.0,STARLINK-3660,PAYLOAD,2023-05-02 03:09:54,15.0884703,0.0001387,53.2174,19.3499,110.598,249.5161,0.00019432,2.807e-05,0.0,0 STARLINK-3660,1 51977U 22025X   23122.13187542  .00002807  00000-0  19432-3 0  9990,2 51977  53.2174  19.3499 0001387 110.5980 249.5161 15.08847030 63947,6917.859,95.437,540.683,538.764,0.0
51977.0,STARLINK-3660,PAYLOAD,2023-05-02 20:39:08,15.08844664,0.0001334,53.2165,16.0791,111.9539,248.1595,0.00015908,2.245e-05,0.0,0 STARLINK-3660,1 51977U 22025X   23122.86051549  .00002245  00000-0  15908-3 0  9997,2 51977  53.2165  16.0791 0001334 111.9539 248.1595 15.08844664 65143,6917.866,95.437,540.654,538.808,0.0
51977.0,STARLINK-3660,PAYLOAD,2023-05-03 09:22:13,15.08842857,0.0001087,53.2172,13.7017,90.5532,269.5585,7.4159e-05,8.93e-06,0.0,0 STARLINK-3660,1 51977U 22025X   23123.39043386  .00000893  00000-0  74159-4 0  9997,2 51977  53.2172  13.7017 0001087  90.5532 269.5585 15.08842857 64132,6917.872,95.437,540.489,538.985,0.0
51977.0,STARLINK-3660,PAYLOAD,2023-05-03 20:29:56,15.08833023,0.0001286,53.2182,11.6232,85.6987,274.4152,-0.0001201,-2.198e-05,0.0,0 STARLINK-3660,1 51977U 22025X   23123.85412183 -.00002198  00000-0 -12010-3 0  9992,2 51977  53.2182  11.6232 0001286  85.6987 274.4152 15.08833023 65297,6917.902,95.438,540.656,538.877,0.0
51977.0,STARLINK-3660,PAYLOAD,2023-05-03 22:05:19,15.08830986,0.0001444,53.2176,11.3237,108.6729,251.4419,-0.00013278,-2.4e-05,0.0,0 STARLINK-3660,1 51977U 22025X   23123.92036217 -.00002400  00000-0 -13278-3 0  9993,2 51977  53.2176  11.3237 0001444 108.6729 251.4419 15.08830986 64215,6917.908,95.438,540.772,538.774,0.0
51977.0,STARLINK-3660,PAYLOAD,2023-05-04 09:13:01,15.08836886,0.0001278,53.2187,9.2456,81.9959,278.1178,-9.641e-05,-1.822e-05,0.0,0 STARLINK-3660,1 51977U 22025X   23124.38404086 -.00001822  00000-0 -96410-4 0  9994,2 51977  53.2187   9.2456 0001278  81.9959 278.1178 15.08836886 64289,6917.89,95.438,540.639,538.871,0.0
51977.0,STARLINK-3660,PAYLOAD,2023-05-04 21:56:06,15.08843715,0.0001134,53.2176,6.8657,92.0786,268.0336,9.1148e-05,1.163e-05,0.0,0 STARLINK-3660,1 51977U 22025X   23124.91395903  .00001163  00000-0  91148-4 0  9999,2 51977  53.2176   6.8657 0001134  92.0786 268.0336 15.08843715 64367,6917.869,95.437,540.519,538.95,0.0
51977.0,STARLINK-3660,PAYLOAD,2023-05-04 23:31:28,15.08849907,0.00012,53.2171,6.5672,88.5144,271.5985,0.00018416,2.645e-05,0.0,0 STARLINK-3660,1 51977U 22025X   23124.98019610  .00002645  00000-0  18416-3 0  9996,2 51977  53.2171   6.5672 0001200  88.5144 271.5985 15.08849907 65468,6917.85,95.437,540.545,538.885,0.0
51977.0,STARLINK-3660,PAYLOAD,2023-05-05 01:06:51,15.08857995,0.0001157,53.2171,6.2686,89.8078,270.3047,0.00028651,4.277e-05,0.0,0 STARLINK-3660,1 51977U 22025X   23125.04643097  .00004277  00000-0  28651-3 0  9991,2 51977  53.2171   6.2686 0001157  89.8078 270.3047 15.08857995 65474,6917.825,95.436,540.491,538.89,0.0
51977.0,STARLINK-3660,PAYLOAD,2023-05-05 20:11:30,15.08837004,9.02e-05,53.2173,2.7025,94.6877,265.4218,0.00016788,2.385e-05,0.0,0 STARLINK-3660,1 51977U 22025X   23125.84132399  .00002385  00000-0  16788-3 0  9993,2 51977  53.2173   2.7025 0000902  94.6877 265.4218 15.08837004 64509,6917.89,95.438,540.379,539.131,0.0
51977.0,STARLINK-3660,PAYLOAD,2023-05-06 00:57:39,15.08841881,0.0001163,53.2162,1.809,91.5193,268.5932,0.0001433,1.994e-05,0.0,0 STARLINK-3660,1 51977U 22025X   23126.04004156  .00001994  00000-0  14330-3 0  9991,2 51977  53.2162   1.8090 0001163  91.5193 268.5932 15.08841881 65625,6917.875,95.437,540.544,538.935,0.0
51977.0,STARLINK-3660,PAYLOAD,2023-05-07 00:48:26,15.08852651,0.0001304,53.2167,357.3485,95.2141,264.9,0.00028026,4.177e-05,0.0,0 STARLINK-3660,1 51977U 22025X   23127.03363796  .00004177  00000-0  28026-3 0  9992,2 51977  53.2167 357.3485 0001304  95.2141 264.9000 15.08852651 64686,6917.842,95.437,540.609,538.805,0.0
51977.0,STARLINK-3660,PAYLOAD,2023-05-07 21:28:28,15.0883526,9.06e-05,53.2158,353.4837,90.5688,269.5408,0.0001199,1.621e-05,0.0,0 STARLINK-3660,1 51977U 22025X   23127.89476912  .00001621  00000-0  11990-3 0  9994,2 51977  53.2158 353.4837 0000906  90.5688 269.5408 15.08835260 65901,6917.895,95.438,540.387,539.133,0.0
51977.0,STARLINK-3660,PAYLOAD,2023-05-08 21:19:14,15.08847811,0.0001044,53.2162,349.0229,84.7445,275.3666,0.00029166,4.358e-05,0.0,0 STARLINK-3660,1 51977U 22025X   23128.88836695  .00004358  00000-0  29166-3 0  9996,2 51977  53.2162 349.0229 0001044  84.7445 275.3666 15.08847811 64963,6917.857,95.437,540.444,538.999,0.0
51977.0,STARLINK-3660,PAYLOAD,2023-05-10 00:20:47,15.08849619,0.0001,53.2171,343.9642,83.5251,276.5855,0.00024731,3.651e-05,0.0,0 STARLINK-3660,1 51977U 22025X   23130.01444387  .00003651  00000-0  24731-3 0  9995,2 51977  53.2171 343.9642 0001000  83.5251 276.5855 15.08849619 65130,6917.851,95.437,540.408,539.024,0.0
51977.0,STARLINK-3660,PAYLOAD,2023-05-10 17:50:02,15.08840595,0.0001035,53.2169,340.698,86.7409,273.3701,3.3263e-05,2.42e-06,0.0,0 STARLINK-3660,1 51977U 22025X   23130.74308792  .00000242  00000-0  33263-4 0  9998,2 51977  53.2169 340.6980 0001035  86.7409 273.3701 15.08840595 66336,6917.879,95.438,540.46,539.028,0.0
51977.0,STARLINK-3660,PAYLOAD,2023-05-10 19:25:25,15.08839608,0.0001216,53.2175,340.4026,79.6264,280.4865,2.4951e-05,1.09e-06,0.0,0 STARLINK-3660,1 51977U 22025X   23130.80932743  .00000109  00000-0  24951-4 0  9990,2 51977  53.2175 340.4026 0001216  79.6264 280.4865 15.08839608 65256,6917.882,95.438,540.588,538.905,0.0
51977.0,STARLINK-3660,PAYLOAD,2023-05-11 20:51:36,15.08841495,9.94e-05,53.2161,335.6427,90.925,269.1856,3.4082e-05,2.55e-06,0.0,0 STARLINK-3660,1 51977U 22025X   23131.86916779  .00000255  00000-0  34082-4 0  9996,2 51977  53.2161 335.6427 0000994  90.9250 269.1856 15.08841495 66505,6917.876,95.437,540.428,539.053,0.0
